STARLINK-2022           
1 47643U 21012Z   24085.19622181  .00012698  00000+0  86999-3 0  9998
2 47643  53.0561  19.1002 0001446  91.4496 268.6659 15.06393374172055
